#aV2007 12 28  0  0   .00000000      96 DD+AD WGS84 FIT  NGA
## 1459 432000.00000000   900.00000000 54462  .0000000000000
+   32     1  2  3  4  5  6  7  8  9 10 11 12 13 14 15 16 17
+         18 19 20 21 22 23 24 25 26 27 28 29 30 31 32  0  0
+          0  0  0  0  0  0  0  0  0  0  0  0  0  0  0  0  0
+          0  0  0  0  0  0  0  0  0  0  0  0  0  0  0  0  0
+          0  0  0  0  0  0  0  0  0  0  0  0  0  0  0  0  0
++         0  0  0  0  0  0  0  0  0  0  0  0  0  0  0  0  0
++         0  0  0  0  0  0  0  0  0  0  0  0  0  0  0  0  0
++         0  0  0  0  0  0  0  0  0  0  0  0  0  0  0  0  0
++         0  0  0  0  0  0  0  0  0  0  0  0  0  0  0  0  0
++         0  0  0  0  0  0  0  0  0  0  0  0  0  0  0  0  0
%c cc cc ccc ccc cccc cccc cccc cccc ccccc ccccc ccccc ccccc
%c cc cc ccc ccc cccc cccc cccc cccc ccccc ccccc ccccc ccccc
%f  0.0000000  0.000000000  0.00000000000  0.000000000000000
%f  0.0000000  0.000000000  0.00000000000  0.000000000000000
%i    0    0    0    0      0      0      0      0         0
%i    0    0    0    0      0      0      0      0         0
/*      NGA, ST. LOUIS,MO.                                  
/*   EPHEMERIS COMPUTED FROM  3 DAYS OF DATA                
/* CCCCCCCCCCCCCCCCCCCCCCCCCCCCCCCCCCCCCCCCCCCCCCCCCCCCCCCCC
/* CCCCCCCCCCCCCCCCCCCCCCCCCCCCCCCCCCCCCCCCCCCCCCCCCCCCCCCCC
*  2007 12 28  2 15   .00000000                                                 
P  1 -19046.792761 -16748.797303  -7786.890668    175.288899                    
V  1  -4735.684502  -9135.330504  30297.618489       .024838                    
P  2  15365.009041   3350.949377 -21572.489935    161.729365                    
V  2  -8614.863984  25631.574535  -2490.921901       .029655                    
P  3 -21764.231976  -6589.726323  13752.424889    164.487986                    
V  3 -10885.541544 -14402.519839 -23359.066934       .055036                    
P  4   9458.886716  15212.780834 -19582.174015    -43.031114                    
V  4 -10160.617708  22729.518211  13172.416877      -.053970                    
P  5  14845.536012 -15779.919402 -15531.851223    618.952619                    
V  5  19309.738418  -2802.882110  21811.303983       .188254                    
P  6   -801.302358 -19927.708925 -17350.411799    174.803628                    
V  6  16793.349797  15107.316851 -17965.991172      -.136387                    
P  7  -4922.771397 -21103.745288 -15009.727126      6.019719                    
V  7  15618.610068  12350.934729 -22028.776279       .362694                    
P  8   2226.161108  21266.270181  15349.521285   -134.991080                    
V  8  -9374.224870  17548.146339 -23265.992559      -.014057                    
P  9  14075.194280 -19151.095205  11054.123187    103.014640                    
V  9  -2189.632035  15074.043098  27568.199870       .017502                    
P 10  26341.746821   -805.239661  -4650.493833   -187.625807                    
V 10  -5276.207950   3135.295763 -30937.030246      -.122460                    
P 11 -11892.549031  21171.473420  10244.528931     26.794462                    
V 11  -2310.500814 -14050.050704  26321.608953       .002071                    
P 12  20281.186595 -12102.871583 -11989.554253   -352.647589                    
V 12  15564.624357   -380.314713  26582.161480      -.010441                    
P 13   2168.848083  20576.868688 -16772.971334    230.647095                    
V 13 -13735.476106 -15947.481234 -21444.744387       .023835                    
P 14 -15066.733593 -21766.497348   2820.362754   -309.944599                    
V 14   3570.291963   1540.542352  32040.304404       .028016                    
P 15  16489.558147  -3105.039314  20613.770485    -70.714822                    
V 15  16363.703689  20386.626833 -10048.573572       .001510                    
P 16 -24920.451277  -2318.166444  -9075.080781    130.279169                    
V 16  11044.039180  -4154.860501 -28865.116441       .011097                    
P 17  14800.242993  21856.699388   3622.575597     45.635686                    
V 17  -4992.221833  -1785.295631  31180.872170      -.007708                    
P 18   2616.766076 -15765.399595  21338.052406   -216.335078                    
V 18  26630.473473  -3018.872056  -5884.467067       .026438                    
P 19 -16514.097766   2272.924718  20793.662513     14.102461                    
V 19 -14883.632668 -21566.538673  -9343.586230       .017584                    
P 20 -17804.472587  13792.611560 -14149.016799    123.688045                    
V 20 -17960.361786   1066.338917  23864.759550      -.007058                    
P 21   4137.770842 -24955.666582   7173.827536     74.592956                    
V 21   6873.711694  -7069.191199 -29770.244345      -.005863                    
P 22 -12528.297782 -12705.818011  19844.640302    205.971494                    
V 22  24500.718868  -4526.565461  12633.511939       .008302                    
P 23  -9333.551121  12053.303350 -21792.243314    321.569696                    
V 23 -18015.601841 -20797.562501  -4023.325624       .031537                    
P 24  12880.022029 -22995.440640  -4195.667270     57.599717                    
V 24    404.037978   6145.477288 -30823.005690       .030699                    
P 25  -6257.986967  25901.053470    539.925032    495.250715                    
V 25  -2603.523366   -416.943761 -31683.834267       .036363                    
P 26  17550.795002   1793.282574  19576.810763    138.705523                    
V 26  15188.031151  20633.451058 -14623.812938       .111533                    
P 27  -2195.096328  25504.568934   7357.011288    157.056411                    
V 27  -4796.224518   7452.830058 -30179.477831       .025577                    
P 28   9740.010529  13410.569175  21182.614433    -12.766219                    
V 28 -25609.832528   4484.849264   8748.063886      -.007004                    
P 29  13970.268822  -6752.419275 -21528.401670    -97.939498                    
V 29  17053.002941  21513.067325   4248.923657       .153826                    
P 30   8861.453226 -16205.692944 -19384.123263     57.727160                    
V 30  23735.291717  -3747.301515  14327.245505       .012751                    
P 31 -10409.245901 -12979.829954 -20475.846553     -3.113914                    
V 31   9788.248533 -24620.949759  10605.890002      -.015113                    
P 32 -20282.411049  -8519.348231  15223.657653    184.888503                    
V 32  18312.782567  -3513.072223  23292.667889       .114326                    
EOF
